NORAD_CAT_ID,OBJECT_NAME,OBJECT_TYPE,EPOCH,MEAN_MOTION,ECCENTRICITY,INCLINATION,RA_OF_ASC_NODE,ARG_OF_PERICENTER,MEAN_ANOMALY,BSTAR,MEAN_MOTION_DOT,MEAN_MOTION_DDOT,TLE_LINE0,TLE_LINE1,TLE_LINE2,SEMIMAJOR_AXIS,PERIOD,APOGEE,PERIGEE,DECAYED
56492.0,STARLINK-5846,PAYLOAD,2024-03-13 11:28:23,14.98309207,0.0002666,70.0002,135.472,264.0592,96.0263,-0.00031446,-3.841e-05,0.0,0 STARLINK-5846,1 56492U 23064AW  24073.47804990 -.00003841  00000-0 -31446-3 0  9997,2 56492  70.0002 135.4720 0002666 264.0592  96.0263 14.98309207 47456,6950.257,96.108,573.975,570.269,0.0
56492.0,STARLINK-5846,PAYLOAD,2024-03-13 21:05:10,14.98363996,0.0003077,70.0019,134.4605,275.0041,85.0767,-0.0008933,-0.00010745,0.0,0 STARLINK-5846,1 56492U 23064AW  24073.87858948 -.00010745  00000-0 -89330-3 0  9999,2 56492  70.0019 134.4605 0003077 275.0041  85.0767 14.98363996 47871,6950.088,96.105,574.091,569.814,0.0
56492.0,STARLINK-5846,PAYLOAD,2024-03-14 05:05:51,14.98328187,0.0003233,69.9994,133.6173,270.8868,89.1921,-4.9545e-05,-6.84e-06,0.0,0 STARLINK-5846,1 56492U 23064AW  24074.21239663 -.00000684  00000-0 -49545-4 0  9991,2 56492  69.9994 133.6173 0003233 270.8868  89.1921 14.98328187 47921,6950.198,96.107,574.31,569.816,0.0
56492.0,STARLINK-5846,PAYLOAD,2024-03-14 06:41:59,14.98326324,0.0002883,69.9991,133.4504,268.6557,91.4272,5.1709e-05,5.24e-06,0.0,0 STARLINK-5846,1 56492U 23064AW  24074.27915526  .00000524  00000-0  51709-4 0  9992,2 56492  69.9991 133.4504 0002883 268.6557  91.4272 14.98326324 47571,6950.204,96.107,574.073,570.066,0.0
56492.0,STARLINK-5846,PAYLOAD,2024-03-14 11:30:22,14.98331606,0.0002995,69.9995,132.9457,266.4096,93.672,8.5149e-05,9.23e-06,0.0,0 STARLINK-5846,1 56492U 23064AW  24074.47943122  .00000923  00000-0  85149-4 0  9995,2 56492  69.9995 132.9457 0002995 266.4096  93.6720 14.98331606 47968,6950.188,96.107,574.135,569.971,0.0
56492.0,STARLINK-5846,PAYLOAD,2024-03-14 14:42:37,14.98351192,0.0003297,69.9995,132.6079,266.3475,93.7307,0.00023121,2.668e-05,0.0,0 STARLINK-5846,1 56492U 23064AW  24074.61293368  .00002668  00000-0  23121-3 0  9990,2 56492  69.9995 132.6079 0003297 266.3475  93.7307 14.98351192 47987,6950.127,96.106,574.284,569.701,0.0
56492.0,STARLINK-5846,PAYLOAD,2024-03-15 05:07:47,14.9836081,0.000241,69.9997,131.0952,261.8905,98.1981,0.00068336,8.076e-05,0.0,0 STARLINK-5846,1 56492U 23064AW  24075.21374739  .00008076  00000-0  68336-3 0  9995,2 56492  69.9997 131.0952 0002410 261.8905  98.1981 14.98360810 48071,6950.098,96.105,573.638,570.288,0.0
56492.0,STARLINK-5846,PAYLOAD,2024-03-15 13:08:32,14.98307485,0.0002388,70.0005,130.2545,269.8594,90.2291,6.5019e-05,6.83e-06,0.0,0 STARLINK-5846,1 56492U 23064AW  24075.54759724  .00000683  00000-0  65019-4 0  9994,2 56492  70.0005 130.2545 0002388 269.8594  90.2291 14.98307485 48121,6950.263,96.108,573.787,570.468,0.0
56492.0,STARLINK-5846,PAYLOAD,2024-03-16 05:09:52,14.98325652,0.0002869,69.9995,128.5706,266.6751,93.408,-0.00015731,-1.969e-05,0.0,0 STARLINK-5846,1 56492U 23064AW  24076.21519286 -.00001969  00000-0 -15731-3 0  9991,2 56492  69.9995 128.5706 0002869 266.6751  93.4080 14.98325652 48227,6950.206,96.107,574.065,570.077,0.0
56492.0,STARLINK-5846,PAYLOAD,2024-03-16 13:10:33,14.98323625,0.0002849,69.9994,127.7282,265.9758,94.1075,-0.00014183,-1.785e-05,0.0,0 STARLINK-5846,1 56492U 23064AW  24076.54899374 -.00001785  00000-0 -14183-3 0  9992,2 56492  69.9994 127.7282 0002849 265.9758  94.1075 14.98323625 47918,6950.213,96.107,574.058,570.097,0.0
56492.0,STARLINK-5846,PAYLOAD,2024-03-17 05:11:52,14.9834903,0.0002893,69.999,126.0454,265.5529,94.5299,-0.00040089,-4.875e-05,0.0,0 STARLINK-5846,1 56492U 23064AW  24077.21658019 -.00004875  00000-0 -40089-3 0  9993,2 56492  69.9990 126.0454 0002893 265.5529  94.5299 14.98349030 48379,6950.134,96.106,574.01,569.988,0.0
56492.0,STARLINK-5846,PAYLOAD,2024-03-17 13:12:32,14.98348619,0.0002953,69.9989,125.2037,267.4675,92.6146,-0.00034856,-4.251e-05,0.0,0 STARLINK-5846,1 56492U 23064AW  24077.55037616 -.00004251  00000-0 -34856-3 0  9997,2 56492  69.9989 125.2037 0002953 267.4675  92.6146 14.98348619 48063,6950.135,96.106,574.053,569.948,0.0
56492.0,STARLINK-5846,PAYLOAD,2024-03-18 05:13:53,14.98324142,0.0003185,69.9987,123.5202,268.8386,91.2408,0.00010946,1.213e-05,0.0,0 STARLINK-5846,1 56492U 23064AW  24078.21798254  .00001213  00000-0  10946-3 0  9990,2 56492  69.9987 123.5202 0003185 268.8386  91.2408 14.98324142 48520,6950.211,96.107,574.29,569.862,0.0
56492.0,STARLINK-5846,PAYLOAD,2024-03-18 13:14:33,14.98327009,0.000315,69.9987,122.6783,268.4477,91.6321,0.00013203,1.483e-05,0.0,0 STARLINK-5846,1 56492U 23064AW  24078.55178105  .00001483  00000-0  13203-3 0  9992,2 56492  69.9987 122.6783 0003150 268.4477  91.6321 14.98327009 48212,6950.202,96.107,574.256,569.878,0.0
56492.0,STARLINK-5846,PAYLOAD,2024-03-19 11:40:26,14.98336207,0.0003027,69.999,120.3222,266.8738,93.2074,8.7282e-05,9.49e-06,0.0,0 STARLINK-5846,1 56492U 23064AW  24079.48641573  .00000949  00000-0  87282-4 0  9994,2 56492  69.9990 120.3222 0003027 266.8738  93.2074 14.98336207 48712,6950.174,96.107,574.143,569.935,0.0
56492.0,STARLINK-5846,PAYLOAD,2024-03-20 02:05:39,14.98328244,0.0002753,69.9996,118.808,260.8146,99.2702,-1.8674e-05,-3.16e-06,0.0,0 STARLINK-5846,1 56492U 23064AW  24080.08726257 -.00000316  00000-0 -18674-4 0  9994,2 56492  69.9996 118.8080 0002753 260.8146  99.2702 14.98328244 48800,6950.198,96.107,573.977,570.15,0.0
56492.0,STARLINK-5846,PAYLOAD,2024-03-20 11:42:28,14.98324028,0.0002824,69.9994,117.7979,262.6644,97.4194,-6.7481e-05,-8.98e-06,0.0,0 STARLINK-5846,1 56492U 23064AW  24080.48782743 -.00000898  00000-0 -67481-4 0  9995,2 56492  69.9994 117.7979 0002824 262.6644  97.4194 14.98324028 48503,6950.211,96.107,574.039,570.114,0.0
56492.0,STARLINK-5846,PAYLOAD,2024-03-21 05:19:56,14.98334711,0.000293,69.999,115.9459,264.1135,95.969,-2.3797e-05,-3.77e-06,0.0,0 STARLINK-5846,1 56492U 23064AW  24081.22217905 -.00000377  00000-0 -23797-4 0  9995,2 56492  69.9990 115.9459 0002930 264.1135  95.9690 14.98334711 48977,6950.178,96.107,574.08,570.007,0.0
56492.0,STARLINK-5846,PAYLOAD,2024-03-21 11:44:28,14.98337329,0.0002943,69.9989,115.2722,268.2182,91.864,6.9278e-06,-1e-07,0.0,0 STARLINK-5846,1 56492U 23064AW  24081.48921602 -.00000010  00000-0  69278-5 0  9997,2 56492  69.9989 115.2722 0002943 268.2182  91.8640 14.98337329 48655,6950.17,96.107,574.081,569.99,0.0
56492.0,STARLINK-5846,PAYLOAD,2024-03-22 05:21:57,14.98328942,0.0002959,69.9988,113.42,267.9408,92.1412,8.9253e-05,9.72e-06,0.0,0 STARLINK-5846,1 56492U 23064AW  24082.22357775  .00000972  00000-0  89253-4 0  9994,2 56492  69.9988 113.4200 0002959 267.9408  92.1412 14.98328942 49124,6950.196,96.107,574.118,570.005,0.0
56492.0,STARLINK-5846,PAYLOAD,2024-03-22 11:46:29,14.98332734,0.0002901,69.9989,112.7469,267.5034,92.5793,0.0001258,1.408e-05,0.0,0 STARLINK-5846,1 56492U 23064AW  24082.49061412  .00001408  00000-0  12580-3 0  9996,2 56492  69.9989 112.7469 0002901 267.5034  92.5793 14.98332734 48806,6950.184,96.107,574.066,570.033,0.0
56492.0,STARLINK-5846,PAYLOAD,2024-03-23 05:23:58,14.98326333,0.0002742,69.9991,110.8949,264.8735,95.2111,-7.8102e-05,-1.025e-05,0.0,0 STARLINK-5846,1 56492U 23064AW  24083.22498368 -.00001025  00000-0 -78102-4 0  9992,2 56492  69.9991 110.8949 0002742 264.8735  95.2111 14.98326333 49276,6950.204,96.107,573.975,570.163,0.0
56492.0,STARLINK-5846,PAYLOAD,2024-03-23 11:48:31,14.98324887,0.0002759,69.9992,110.222,265.6451,94.4393,-8.9125e-05,-1.156e-05,0.0,0 STARLINK-5846,1 56492U 23064AW  24083.49202550 -.00001156  00000-0 -89125-4 0  9999,2 56492  69.9992 110.2220 0002759 265.6451  94.4393 14.98324887 48954,6950.209,96.107,573.991,570.156,0.0
56492.0,STARLINK-5846,PAYLOAD,2024-03-24 05:25:55,14.98365173,0.0002475,69.9997,108.3699,263.9268,96.1609,0.00031818,3.709e-05,0.0,0 STARLINK-5846,1 56492U 23064AW  24084.22633856  .00003709  00000-0  31818-3 0  9997,2 56492  69.9997 108.3699 0002475 263.9268  96.1609 14.98365173 49424,6950.084,96.105,573.669,570.229,0.0
56492.0,STARLINK-5846,PAYLOAD,2024-03-24 11:50:30,14.98323733,0.0002751,69.9994,107.6975,264.9265,95.158,-0.0001751,-2.181e-05,0.0,0 STARLINK-5846,1 56492U 23064AW  24084.49341335 -.00002181  00000-0 -17510-3 0  9992,2 56492  69.9994 107.6975 0002751 264.9265  95.1580 14.98323733 49462,6950.212,96.107,573.989,570.165,0.0
56492.0,STARLINK-5846,PAYLOAD,2024-03-24 18:15:03,14.9831877,0.0002771,69.9995,107.0239,266.1297,93.9545,-0.00017779,-2.213e-05,0.0,0 STARLINK-5846,1 56492U 23064AW  24084.76045722 -.00002213  00000-0 -17779-3 0  9996,2 56492  69.9995 107.0239 0002771 266.1297  93.9545 14.98318770 49148,6950.228,96.108,574.019,570.167,0.0
56492.0,STARLINK-5846,PAYLOAD,2024-03-25 11:52:32,14.98315186,0.0002777,69.9992,105.1722,271.1609,88.9232,-8.4737e-05,-1.103e-05,0.0,0 STARLINK-5846,1 56492U 23064AW  24085.49482142 -.00001103  00000-0 -84737-4 0  9994,2 56492  69.9992 105.1722 0002777 271.1609  88.9232 14.98315186 49617,6950.239,96.108,574.034,570.174,0.0
56492.0,STARLINK-5846,PAYLOAD,2024-03-25 18:17:04,14.98317058,0.0002835,69.9992,104.4986,279.3592,80.7247,-9.6499e-05,-1.244e-05,0.0,0 STARLINK-5846,1 56492U 23064AW  24085.76186243 -.00001244  00000-0 -96499-4 0  9991,2 56492  69.9992 104.4986 0002835 279.3592  80.7247 14.98317058 49297,6950.233,96.108,574.068,570.128,0.0
56492.0,STARLINK-5846,PAYLOAD,2024-03-26 05:30:00,14.9833868,0.0002735,69.9989,103.3205,269.0364,91.0482,-0.00049005,-5.936e-05,0.0,0 STARLINK-5846,1 56492U 23064AW  24086.22917803 -.00005936  00000-0 -49005-3 0  9999,2 56492  69.9989 103.3205 0002735 269.0364  91.0482 14.98338680 49725,6950.166,96.106,573.932,570.13,0.0
56492.0,STARLINK-5846,PAYLOAD,2024-03-26 10:18:25,14.98336096,0.0002658,69.9989,102.8155,270.6083,89.4772,-0.00048337,-5.856e-05,0.0,0 STARLINK-5846,1 56492U 23064AW  24086.42945934 -.00005856  00000-0 -48337-3 0  9995,2 56492  69.9989 102.8155 0002658 270.6083  89.4772 14.98336096 49398,6950.174,96.107,573.886,570.192,0.0
